[Satellite]
VERSION=1.1
NAME=IRIDIUM 113 [+]
NICKNAME=IRIDIUM 113 [+]
TLE1=1 42803U 17039A   19317.38925285  .00000076  00000-0  20252-4 0  9998
TLE2=2 42803  86.3995 248.1831 0002022  70.8805 289.2610 14.34217596126076
STATUS=0
